{"type": "FeatureCollection", "features": [{"type": "Feature", "properties": {"name": "DEMO cell 0-0 (not real data)", "location_class": 8}, "geometry": {"type": "Polygon", "coordinates": [[[8.62, 50.085], [8.635, 50.085], [8.635, 50.095], [8.62, 50.095], [8.62, 50.085]]]}}, {"type": "Feature", "properties": {"name": "DEMO cell 0-1 (not real data)", "location_class": 5}, "geometry": {"type": "Polygon", "coordinates": [[[8.635, 50.085], [8.65, 50.085], [8.65, 50.095], [8.635, 50.095], [8.635, 50.085]]]}}, {"type": "Feature", "properties": {"name": "DEMO cell 0-2 (not real data)", "location_class": 10}, "geometry": {"type": "Polygon", "coordinates": [[[8.65, 50.085], [8.665, 50.085], [8.665, 50.095], [8.65, 50.095], [8.65, 50.085]]]}}, {"type": "Feature", "properties": {"name": "DEMO cell 0-3 (not real data)", "location_class": 2}, "geometry": {"type": "Polygon", "coordinates": [[[8.665, 50.085], [8.68, 50.085], [8.68, 50.095], [8.665, 50.095], [8.665, 50.085]]]}}, {"type": "Feature", "properties": {"name": "DEMO cell 0-4 (not real data)", "location_class": 2}, "geometry": {"type": "Polygon", "coordinates": [[[8.68, 50.085], [8.695, 50.085], [8.695, 50.095], [8.68, 50.095], [8.68, 50.085]]]}}, {"type": "Feature", "properties": {"name": "DEMO cell 0-5 (not real data)", "location_class": 9}, "geometry": {"type": "Polygon", "coordinates": [[[8.695, 50.085], [8.71, 50.085], [8.71, 50.095], [8.695, 50.095], [8.695, 50.085]]]}}, {"type": "Feature", "properties": {"name": "DEMO cell 0-6 (not real data)", "location_class": 7}, "geometry": {"type": "Polygon", "coordinates": [[[8.71, 50.085], [8.725, 50.085], [8.725, 50.095], [8.71, 50.095], [8.71, 50.085]]]}}, {"type": "Feature", "properties": {"name": "DEMO cell 0-7 (not real data)", "location_class": 3}, "geometry": {"type": "Polygon", "coordinates": [[[8.725, 50.085], [8.74, 50.085], [8.74, 50.095], [8.725, 50.095], [8.725, 50.085]]]}}, {"type": "Feature", "properties": {"name": "DEMO cell 1-0 (not real data)", "location_class": 6}, "geometry": {"type": "Polygon", "coordinates": [[[8.62, 50.095], [8.635, 50.095], [8.635, 50.105], [8.62, 50.105], [8.62, 50.095]]]}}, {"type": "Feature", "properties": {"name": "DEMO cell 1-1 (not real data)", "location_class": 3}, "geometry": {"type": "Polygon", "coordinates": [[[8.635, 50.095], [8.65, 50.095], [8.65, 50.105], [8.635, 50.105], [8.635, 50.095]]]}}, {"type": "Feature", "properties": {"name": "DEMO cell 1-2 (not real data)", "location_class": 8}, "geometry": {"type": "Polygon", "coordinates": [[[8.65, 50.095], [8.665, 50.095], [8.665, 50.105], [8.65, 50.105], [8.65, 50.095]]]}}, {"type": "Feature", "properties": {"name": "DEMO cell 1-3 (not real data)", "location_class": 7}, "geometry": {"type": "Polygon", "coordinates": [[[8.665, 50.095], [8.68, 50.095], [8.68, 50.105], [8.665, 50.105], [8.665, 50.095]]]}}, {"type": "Feature", "properties": {"name": "DEMO cell 1-4 (not real data)", "location_class": 1}, "geometry": {"type": "Polygon", "coordinates": [[[8.68, 50.095], [8.695, 50.095], [8.695, 50.105], [8.68, 50.105], [8.68, 50.095]]]}}, {"type": "Feature", "properties": {"name": "DEMO cell 1-5 (not real data)", "location_class": 2}, "geometry": {"type": "Polygon", "coordinates": [[[8.695, 50.095], [8.71, 50.095], [8.71, 50.105], [8.695, 50.105], [8.695, 50.095]]]}}, {"type": "Feature", "properties": {"name": "DEMO cell 1-6 (not real data)", "location_class": 9}, "geometry": {"type": "Polygon", "coordinates": [[[8.71, 50.095], [8.725, 50.095], [8.725, 50.105], [8.71, 50.105], [8.71, 50.095]]]}}, {"type": "Feature", "properties": {"name": "DEMO cell 1-7 (not real data)", "location_class": 10}, "geometry": {"type": "Polygon", "coordinates": [[[8.725, 50.095], [8.74, 50.095], [8.74, 50.105], [8.725, 50.105], [8.725, 50.095]]]}}, {"type": "Feature", "properties": {"name": "DEMO cell 2-0 (not real data)", "location_class": 6}, "geometry": {"type": "Polygon", "coordinates": [[[8.62, 50.105], [8.635, 50.105], [8.635, 50.115], [8.62, 50.115], [8.62, 50.105]]]}}, {"type": "Feature", "properties": {"name": "DEMO cell 2-1 (not real data)", "location_class": 6}, "geometry": {"type": "Polygon", "coordinates": [[[8.635, 50.105], [8.65, 50.105], [8.65, 50.115], [8.635, 50.115], [8.635, 50.105]]]}}, {"type": "Feature", "properties": {"name": "DEMO cell 2-2 (not real data)", "location_class": 6}, "geometry": {"type": "Polygon", "coordinates": [[[8.65, 50.105], [8.665, 50.105], [8.665, 50.115], [8.65, 50.115], [8.65, 50.105]]]}}, {"type": "Feature", "properties": {"name": "DEMO cell 2-3 (not real data)", "location_class": 10}, "geometry": {"type": "Polygon", "coordinates": [[[8.665, 50.105], [8.68, 50.105], [8.68, 50.115], [8.665, 50.115], [8.665, 50.105]]]}}, {"type": "Feature", "properties": {"name": "DEMO cell 2-4 (not real data)", "location_class": 8}, "geometry": {"type": "Polygon", "coordinates": [[[8.68, 50.105], [8.695, 50.105], [8.695, 50.115], [8.68, 50.115], [8.68, 50.105]]]}}, {"type": "Feature", "properties": {"name": "DEMO cell 2-5 (not real data)", "location_class": 10}, "geometry": {"type": "Polygon", "coordinates": [[[8.695, 50.105], [8.71, 50.105], [8.71, 50.115], [8.695, 50.115], [8.695, 50.105]]]}}, {"type": "Feature", "properties": {"name": "DEMO cell 2-6 (not real data)", "location_class": 8}, "geometry": {"type": "Polygon", "coordinates": [[[8.71, 50.105], [8.725, 50.105], [8.725, 50.115], [8.71, 50.115], [8.71, 50.105]]]}}, {"type": "Feature", "properties": {"name": "DEMO cell 2-7 (not real data)", "location_class": 2}, "geometry": {"type": "Polygon", "coordinates": [[[8.725, 50.105], [8.74, 50.105], [8.74, 50.115], [8.725, 50.115], [8.725, 50.105]]]}}, {"type": "Feature", "properties": {"name": "DEMO cell 3-0 (not real data)", "location_class": 2}, "geometry": {"type": "Polygon", "coordinates": [[[8.62, 50.115], [8.635, 50.115], [8.635, 50.125], [8.62, 50.125], [8.62, 50.115]]]}}, {"type": "Feature", "properties": {"name": "DEMO cell 3-1 (not real data)", "location_class": 5}, "geometry": {"type": "Polygon", "coordinates": [[[8.635, 50.115], [8.65, 50.115], [8.65, 50.125], [8.635, 50.125], [8.635, 50.115]]]}}, {"type": "Feature", "properties": {"name": "DEMO cell 3-2 (not real data)", "location_class": 8}, "geometry": {"type": "Polygon", "coordinates": [[[8.65, 50.115], [8.665, 50.115], [8.665, 50.125], [8.65, 50.125], [8.65, 50.115]]]}}, {"type": "Feature", "properties": {"name": "DEMO cell 3-3 (not real data)", "location_class": 2}, "geometry": {"type": "Polygon", "coordinates": [[[8.665, 50.115], [8.68, 50.115], [8.68, 50.125], [8.665, 50.125], [8.665, 50.115]]]}}, {"type": "Feature", "properties": {"name": "DEMO cell 3-4 (not real data)", "location_class": 1}, "geometry": {"type": "Polygon", "coordinates": [[[8.68, 50.115], [8.695, 50.115], [8.695, 50.125], [8.68, 50.125], [8.68, 50.115]]]}}, {"type": "Feature", "properties": {"name": "DEMO cell 3-5 (not real data)", "location_class": 5}, "geometry": {"type": "Polygon", "coordinates": [[[8.695, 50.115], [8.71, 50.115], [8.71, 50.125], [8.695, 50.125], [8.695, 50.115]]]}}, {"type": "Feature", "properties": {"name": "DEMO cell 3-6 (not real data)", "location_class": 10}, "geometry": {"type": "Polygon", "coordinates": [[[8.71, 50.115], [8.725, 50.115], [8.725, 50.125], [8.71, 50.125], [8.71, 50.115]]]}}, {"type": "Feature", "properties": {"name": "DEMO cell 3-7 (not real data)", "location_class": 8}, "geometry": {"type": "Polygon", "coordinates": [[[8.725, 50.115], [8.74, 50.115], [8.74, 50.125], [8.725, 50.125], [8.725, 50.115]]]}}, {"type": "Feature", "properties": {"name": "DEMO cell 4-0 (not real data)", "location_class": 5}, "geometry": {"type": "Polygon", "coordinates": [[[8.62, 50.125], [8.635, 50.125], [8.635, 50.135], [8.62, 50.135], [8.62, 50.125]]]}}, {"type": "Feature", "properties": {"name": "DEMO cell 4-1 (not real data)", "location_class": 7}, "geometry": {"type": "Polygon", "coordinates": [[[8.635, 50.125], [8.65, 50.125], [8.65, 50.135], [8.635, 50.135], [8.635, 50.125]]]}}, {"type": "Feature", "properties": {"name": "DEMO cell 4-2 (not real data)", "location_class": 6}, "geometry": {"type": "Polygon", "coordinates": [[[8.65, 50.125], [8.665, 50.125], [8.665, 50.135], [8.65, 50.135], [8.65, 50.125]]]}}, {"type": "Feature", "properties": {"name": "DEMO cell 4-3 (not real data)", "location_class": 1}, "geometry": {"type": "Polygon", "coordinates": [[[8.665, 50.125], [8.68, 50.125], [8.68, 50.135], [8.665, 50.135], [8.665, 50.125]]]}}, {"type": "Feature", "properties": {"name": "DEMO cell 4-4 (not real data)", "location_class": 8}, "geometry": {"type": "Polygon", "coordinates": [[[8.68, 50.125], [8.695, 50.125], [8.695, 50.135], [8.68, 50.135], [8.68, 50.125]]]}}, {"type": "Feature", "properties": {"name": "DEMO cell 4-5 (not real data)", "location_class": 6}, "geometry": {"type": "Polygon", "coordinates": [[[8.695, 50.125], [8.71, 50.125], [8.71, 50.135], [8.695, 50.135], [8.695, 50.125]]]}}, {"type": "Feature", "properties": {"name": "DEMO cell 4-6 (not real data)", "location_class": 3}, "geometry": {"type": "Polygon", "coordinates": [[[8.71, 50.125], [8.725, 50.125], [8.725, 50.135], [8.71, 50.135], [8.71, 50.125]]]}}, {"type": "Feature", "properties": {"name": "DEMO cell 4-7 (not real data)", "location_class": 10}, "geometry": {"type": "Polygon", "coordinates": [[[8.725, 50.125], [8.74, 50.125], [8.74, 50.135], [8.725, 50.135], [8.725, 50.125]]]}}, {"type": "Feature", "properties": {"name": "DEMO cell 5-0 (not real data)", "location_class": 2}, "geometry": {"type": "Polygon", "coordinates": [[[8.62, 50.135], [8.635, 50.135], [8.635, 50.145], [8.62, 50.145], [8.62, 50.135]]]}}, {"type": "Feature", "properties": {"name": "DEMO cell 5-1 (not real data)", "location_class": 8}, "geometry": {"type": "Polygon", "coordinates": [[[8.635, 50.135], [8.65, 50.135], [8.65, 50.145], [8.635, 50.145], [8.635, 50.135]]]}}, {"type": "Feature", "properties": {"name": "DEMO cell 5-2 (not real data)", "location_class": 1}, "geometry": {"type": "Polygon", "coordinates": [[[8.65, 50.135], [8.665, 50.135], [8.665, 50.145], [8.65, 50.145], [8.65, 50.135]]]}}, {"type": "Feature", "properties": {"name": "DEMO cell 5-3 (not real data)", "location_class": 4}, "geometry": {"type": "Polygon", "coordinates": [[[8.665, 50.135], [8.68, 50.135], [8.68, 50.145], [8.665, 50.145], [8.665, 50.135]]]}}, {"type": "Feature", "properties": {"name": "DEMO cell 5-4 (not real data)", "location_class": 5}, "geometry": {"type": "Polygon", "coordinates": [[[8.68, 50.135], [8.695, 50.135], [8.695, 50.145], [8.68, 50.145], [8.68, 50.135]]]}}, {"type": "Feature", "properties": {"name": "DEMO cell 5-5 (not real data)", "location_class": 3}, "geometry": {"type": "Polygon", "coordinates": [[[8.695, 50.135], [8.71, 50.135], [8.71, 50.145], [8.695, 50.145], [8.695, 50.135]]]}}, {"type": "Feature", "properties": {"name": "DEMO cell 5-6 (not real data)", "location_class": 4}, "geometry": {"type": "Polygon", "coordinates": [[[8.71, 50.135], [8.725, 50.135], [8.725, 50.145], [8.71, 50.145], [8.71, 50.135]]]}}, {"type": "Feature", "properties": {"name": "DEMO cell 5-7 (not real data)", "location_class": 7}, "geometry": {"type": "Polygon", "coordinates": [[[8.725, 50.135], [8.74, 50.135], [8.74, 50.145], [8.725, 50.145], [8.725, 50.135]]]}}]}